SHIELDS 1               
1 43850U 18104B   22304.48754705  .00005596  00000+0  22466-3 0  9992
2 43850  85.0259 321.9003 0015991 119.3856 240.8986 15.24607090215220
STF-1                   
1 43852U 18104D   22304.30356491  .00014667  00000+0  51048-3 0  9992
2 43852  85.0280 321.8513 0014285 128.2963 231.9570 15.29466619215285
ZACUBE-2                
1 43907U 18111AH  22304.78975029  .00013268  00000+0  45676-3 0  9993
2 43907  97.1681 186.2648 0017538 318.7823 106.8155 15.30016900214129
LUME 1                  
1 43908U 18111AJ  22304.21059565  .00017302  00000+0  53783-3 0  9991
2 43908  97.1690 187.8120 0015625 314.8263  45.1709 15.33277105214176
AOBA VELOX-IV           
1 43940U 19003J   22304.34810470  .00046476  00000+0  96472-3 0  9998
2 43940  97.1136 336.7292 0014395  20.5477 339.6349 15.45446073211053
MOVE-IIB                
1 44398U 19038N   22304.88862790  .00021052  00000+0  91099-3 0  9998
2 44398  97.6436 275.8810 0020902  20.9079 339.3019 15.22259037183765
SONATE                  
1 44400U 19038Q   22304.89527500  .00008464  00000+0  44085-3 0  9995
2 44400  97.6548 274.2409 0023860  27.3701 332.8786 15.16011464183592
LUCKY-7                 
1 44406U 19038W   22304.86654852  .00012151  00000+0  60974-3 0  9992
2 44406  97.6562 274.8990 0022844  25.3330 334.9018 15.17236840183636
BEESAT 9                
1 44412U 19038AC  22304.65254645  .00015772  00000+0  74611-3 0  9997
2 44412  97.6529 275.2441 0020546  30.2239 330.0176 15.19271543183354
JAISAT-1                
1 44419U 19038F   22304.39845180  .00015816  00000+0  73883-3 0  9994
2 44419  97.6529 275.9286 0019397  28.3674 331.8612 15.19728046183683
DUCHIFAT-3              
1 44854U 19089C   22304.56627833  .00005391  00000+0  40797-3 0  9990
2 44854  36.9655  12.8902 0007673 257.0134 102.9814 15.02105019158405
EYESAT-NANO             
1 44877U 19092E   22304.77524243  .00019475  00000+0  76746-3 0  9994
2 44877  97.4627 128.4639 0009861 235.9368 124.0934 15.25587346159127
ORBITAL FACTORY 2 (OF-2)
1 45113U 19071C   22304.82322028  .00062382  00000+0  93351-3 0  9994
2 45113  51.6349 104.8006 0009225 302.1853  57.8242 15.54339171154516
M2 PATHFINDER           
1 45727U 20037E   22304.41158549  .00001566  00000+0  15827-3 0  9998
2 45727  97.7424 117.5025 0012019 309.7767  50.2406 14.92406370127107
NETSAT-4                
1 46504U 20068U   22304.65247302  .00004801  00000+0  34917-3 0  9994
2 46504  97.7339 244.3086 0010247 225.5423 134.4993 15.04257969114516
NETSAT-3                
1 46505U 20068V   22304.80491362  .00003582  00000+0  26212-3 0  9993
2 46505  97.7354 244.3609 0008819 230.0169 130.0318 15.04211891114545
NETSAT-1                
1 46506U 20068W   22304.56047685  .00004366  00000+0  31893-3 0  9994
2 46506  97.7349 244.0310 0006932 239.7143 120.3405 15.04168268114502
NETSAT-2                
1 46507U 20068X   22304.57152817  .00005087  00000+0  37092-3 0  9998
2 46507  97.7331 244.0321 0006823 249.4000 110.6498 15.04161206114458
SAI-1 NANOCONNECT-2     
1 47701U 21015C   22304.52173692  .00020615  00000+0  69509-3 0  9999
2 47701  97.4119  20.9766 0009670 336.8528  23.2276 15.30706695 93005
WILDTRACKCUBE-SIMBA     
1 47941U 21022K   22304.83868377  .00005131  00000+0  33359-3 0  9998
2 47941  97.5150 201.4114 0022043  44.3615  43.7573 15.08234577 88547
BEESAT-6                
1 47957U 21022AB  22304.96449251  .00010846  00000+0  65852-3 0  9997
2 47957  97.5150 201.9354 0021786  40.6089  14.7172 15.10478505 88392
SMOG-1                  
1 47964U 21022AJ  22304.67591212  .00013809  00000+0  80315-3 0  9991
2 47964  97.5143 203.0130 0019091  33.5247 326.7187 15.12022710 87453
MMSATS-1                
1 47976U 98067SJ  22304.71971245  .00054133  00000+0  49819-3 0  9999
2 47976  51.6399 357.3067 0001957  46.8572  43.6293 15.67114604 91566
BCCSAT-1                
1 48041U 21022AK  22304.47880247  .00012354  00000+0  74100-3 0  9994
2 48041  97.5145 202.2601 0015939  33.9789 326.2459 15.10983354 87363
BEESAT-5                
1 48083U 21022AM  22304.93785969  .00012384  00000+0  74375-3 0  9993
2 48083  97.5112 201.9300 0019475  43.3113  14.2316 15.10880767 87528
BEESAT-7                
1 48084U 21022AN  22304.68226949  .00010436  00000+0  63087-3 0  9998
2 48084  97.5183 201.6785 0021944  46.8506 343.2428 15.10645585 87075
BEESAT-8                
1 48085U 21022AP  22304.90171620  .00008179  00000+0  50081-3 0  9990
2 48085  97.5134 201.8650 0021530  44.0646  22.0062 15.10259605 87666
LEDSAT                  
1 49069U 21073D   22304.63867082  .00006510  00000+0  40358-3 0  9996
2 49069  97.5110  14.8245 0026418 184.6459 175.4530 15.09791657 66372
HSU-SAT1                
1 53462U 98067UB  22304.60932771  .00065980  00000+0  86385-3 0  9996
2 53462  51.6397  18.5060 0008306  45.2892 314.8775 15.57937790 12483
FUTABA                  
1 53463U 98067UC  22304.64308206  .00082350  00000+0  10138-2 0  9993
2 53463  51.6384  17.9802 0008774  41.1876 318.9778 15.59470020 12492
TUMNANOSAT              
1 53464U 98067UD  22304.48548047  .00104596  00000+0  12111-2 0  9995
2 53464  51.6385  18.4275 0009238  37.2627 322.9006 15.60962377 12470
